[{"OBJECT_NAME":"SHIYAN-21 (SY-21)","OBJECT_ID":"2022-172A","EPOCH":"2026-03-09T23:40:42.191616","MEAN_MOTION":15.28197132,"ECCENTRICITY":0.00206059,"INCLINATION":35.9768,"RA_OF_ASC_NODE":332.6944,"ARG_OF_PERICENTER":79.3933,"MEAN_ANOMALY":280.9121,"EPHEMERIS_TYPE":0,"CLASSIFICATION_TYPE":"U","NORAD_CAT_ID":54752,"ELEMENT_SET_NO":999,"REV_AT_EPOCH":18050,"BSTAR":0.00041186164,"MEAN_MOTION_DOT":0.00011616,"MEAN_MOTION_DDOT":0},{"OBJECT_NAME":"STARLINK-35467","OBJECT_ID":"2025-253AA","EPOCH":"2026-03-09T10:34:48.552672","MEAN_MOTION":15.27587843,"ECCENTRICITY":0.00033084,"INCLINATION":43.002,"RA_OF_ASC_NODE":214.1513,"ARG_OF_PERICENTER":304.535,"MEAN_ANOMALY":55.5189,"EPHEMERIS_TYPE":0,"CLASSIFICATION_TYPE":"U","NORAD_CAT_ID":66343,"ELEMENT_SET_NO":999,"REV_AT_EPOCH":2020,"BSTAR":0.0011817307,"MEAN_MOTION_DOT":0.0003241,"MEAN_MOTION_DDOT":0}]
